OBJECT_NAME,OBJECT_ID,EPOCH,MEAN_MOTION,ECCENTRICITY,INCLINATION,RA_OF_ASC_NODE,ARG_OF_PERICENTER,MEAN_ANOMALY,EPHEMERIS_TYPE,CLASSIFICATION_TYPE,NORAD_CAT_ID,ELEMENT_SET_NO,REV_AT_EPOCH,BSTAR,MEAN_MOTION_DOT,MEAN_MOTION_DDOT
CZ-4B R/B,2020-067D,2022-12-15T10:03:35.094816,15.15122923,.0145657,97.9565,106.1928,145.3175,215.7661,0,U,46481,999,12216,.60382E-3,.14745E-3,0
CZ-4B DEB,2020-067F,2022-12-14T12:24:50.712768,14.99806468,.0089499,97.9333,86.3271,202.6742,157.0517,0,U,46483,999,12087,.70981E-3,.9494E-4,0
CZ-4B DEB,2020-067G,2022-12-14T18:42:26.343648,14.80422256,.0048585,97.7975,54.8805,309.4948,50.1973,0,U,46484,999,11942,.35022E-3,.2676E-4,0
ATLAS 5 CENTAUR DEB,2018-079BY,2022-12-14T13:01:43.041792,2.01363921,.4718626,11.9583,116.8917,162.7552,221.2737,0,U,46485,999,805,0,-.68E-6,0
GONETS-M 17,2020-068A,2022-12-15T03:22:33.904416,12.42881645,.0022271,82.5006,63.7928,307.7540,52.1525,0,U,46486,999,10033,.1E-3,.24E-6,0
GONETS-M 18,2020-068B,2022-12-15T04:34:06.907872,12.42866790,.0018788,82.4950,63.3756,305.3052,54.6278,0,U,46487,999,10033,.1E-3,.24E-6,0
GONETS-M 19,2020-068C,2022-12-15T03:56:12.304320,12.42872821,.0013182,82.4986,63.5685,321.9929,38.0229,0,U,46488,999,10034,.1E-3,.24E-6,0
MEZNSAT,2020-068D,2022-12-14T17:43:12.992448,15.07784372,.0018428,97.7476,291.3985,28.4494,331.7735,0,U,46489,999,12139,.52531E-3,.8003E-4,0
YARILO 1,2020-068E,2022-12-14T17:56:33.751104,15.08183703,.0019029,97.7437,291.5370,28.0612,332.1638,0,U,46490,999,12140,.5094E-3,.7846E-4,0
YARILO 2,2020-068F,2022-12-14T18:04:39.542016,15.07977806,.0018827,97.7443,291.3988,29.9934,330.2368,0,U,46491,999,12139,.54594E-3,.8366E-4,0
LACUNASAT-3,2020-068G,2022-12-14T15:00:11.205216,15.08299730,.0018166,97.7479,291.3942,31.3706,328.8602,0,U,46492,999,12136,.48072E-3,.7421E-4,0
DEKART,2020-068H,2022-12-14T22:22:54.617376,15.05981167,.0019069,97.7466,290.9170,33.6742,326.5693,0,U,46493,999,12135,.28526E-3,.4108E-4,0
NORBI,2020-068J,2022-12-14T22:14:22.240320,15.06328564,.0018521,97.7489,290.9109,34.3000,325.9421,0,U,46494,999,12135,.32418E-3,.4721E-4,0
SALSAT,2020-068K,2022-12-14T14:50:32.217216,15.05468259,.0017237,97.7496,290.2437,31.9489,328.2779,0,U,46495,999,12128,.2016E-3,.2841E-4,0
ICEYE-X7,2020-068L,2022-12-14T20:43:40.395072,15.01403718,.0016208,97.6348,283.3317,38.9360,321.3043,0,U,46496,999,12112,.3343E-3,.4265E-4,0
ICEYE-X6,2020-068M,2022-12-14T20:49:19.176384,15.02013396,.0012979,97.7758,288.7689,42.3364,317.8864,0,U,46497,999,12112,.37082E-3,.4808E-4,0
KEPLER-5 (AMIDALA),2020-068N,2022-12-14T19:26:29.276448,15.07614214,.001443,97.7386,289.9608,42.0704,318.1627,0,U,46498,999,12130,.64006E-3,.9709E-4,0
KEPLER-4 (ANTILLES),2020-068P,2022-12-14T17:56:52.620000,15.07481583,.0014233,97.7372,289.8227,40.6224,319.6062,0,U,46499,999,12124,.60648E-3,.9162E-4,0
LEMUR-2-SLICERS,2020-068Q,2022-12-14T18:37:15.236256,15.08534951,.0013548,97.7367,290.0510,45.3014,314.9321,0,U,46500,999,12126,.7212E-3,.11226E-3,0
LEMUR-2-DAYWZAGOODDAY,2020-068R,2022-12-14T17:53:40.447392,15.08832045,.0013888,97.7406,290.2984,40.8527,319.3739,0,U,46501,999,12126,.69105E-3,.10842E-3,0
LEMUR-2-SUSURRUS,2020-068S,2022-12-14T18:38:18.799872,15.08560862,.0012872,97.7380,290.0483,47.2558,312.9751,0,U,46502,999,12126,.83774E-3,.1306E-3,0
LEMUR-2-NICHOL,2020-068T,2022-12-14T19:17:14.068320,15.08383509,.0013386,97.7364,290.0161,47.1812,313.0537,0,U,46503,999,12126,.63772E-3,.9875E-4,0
NETSAT-4,2020-068U,2022-12-14T17:58:21.152352,15.04634810,.0013731,97.7414,288.4754,74.9574,285.3175,0,U,46504,999,12114,.29739E-3,.4124E-4,0
NETSAT-3,2020-068V,2022-12-14T18:28:19.874208,15.04594654,.0012367,97.7393,288.3841,83.8144,276.4491,0,U,46505,999,12115,.3689E-3,.5124E-4,0
NETSAT-1,2020-068W,2022-12-14T19:01:50.738304,15.04518240,.001107,97.7397,288.3208,92.1622,268.0874,0,U,46506,999,12115,.30822E-3,.4261E-4,0
NETSAT-2,2020-068X,2022-12-14T19:17:36.553920,15.04534680,.0009987,97.7405,288.3236,93.1004,267.1365,0,U,46507,999,12110,.30027E-3,.415E-4,0
RESURS O1 DEB,1994-074AU,2022-12-13T14:22:54.818112,15.04505542,.0001901,97.8499,40.6268,85.5228,274.6215,0,U,46508,999,12450,.28045E-2,.39405E-3,0
RESURS O1 DEB,1994-074AV,2022-12-14T09:37:53.721408,14.95658454,.0002152,97.8561,38.4172,122.8256,237.3172,0,U,46509,999,12434,.27212E-2,.30315E-3,0
RESURS O1 DEB,1994-074AW,2022-12-15T01:57:50.472288,14.97043176,.0004689,97.8539,39.0828,214.5525,145.5392,0,U,46510,999,12434,.37956E-2,.43925E-3,0
RESURS O1 DEB,1994-074AX,2022-12-14T16:13:53.968512,14.95596846,.0000853,97.8901,39.9993,106.5818,253.5496,0,U,46511,999,12430,.38505E-2,.42928E-3,0
RESURS O1 DEB,1994-074AY,2022-12-15T01:47:45.013920,14.96966893,.0006743,97.8905,40.1058,122.4518,237.7356,0,U,46512,999,12392,.27174E-2,.3132E-3,0
RESURS O1 DEB,1994-074BA,2022-12-15T09:22:08.078592,14.94312845,.0002422,97.8961,40.2780,114.2453,245.9020,0,U,46514,999,12370,.3448E-2,.37171E-3,0
RESURS O1 DEB,1994-074BB,2022-12-15T02:09:56.531232,15.04166290,.0002678,97.8945,42.8486,92.2392,267.9139,0,U,46515,999,12388,.54513E-2,.76365E-3,0
FREGAT DEB,2011-037MC,2022-12-14T17:27:41.746464,10.57680442,.1858245,51.6213,186.4065,74.2542,305.4580,0,U,46524,999,8954,.32024E-2,.1238E-4,0
FLOCK 4V-16,2020-061BD,2022-12-15T02:36:03.061728,15.25578475,.0005996,97.3801,57.2878,192.4153,167.6938,0,U,46527,999,12237,.13839E-2,.35213E-3,0
FLOCK 4V-15,2020-061BE,2022-12-15T04:24:18.575712,15.25582609,.0001712,97.3781,57.7707,208.6041,151.5103,0,U,46528,999,12277,.42568E-3,.10743E-3,0
FLOCK 4V-17,2020-061BF,2022-12-14T16:36:04.023936,15.25632715,.0001847,97.3749,56.8981,187.0884,173.0329,0,U,46529,999,12189,.76627E-3,.19448E-3,0
STARLINK-1644,2020-070A,2022-12-14T23:22:49.136448,15.06404989,.000191,53.0562,77.0654,40.1358,319.9772,0,U,46532,999,12156,.89296E-4,.1049E-4,0
STARLINK-1648,2020-070B,2022-12-14T12:29:58.339104,15.06396743,.0001765,53.0559,79.0872,46.5695,313.5440,0,U,46533,999,12149,.13248E-4,-.84E-6,0
STARLINK-1659,2020-070C,2022-12-14T20:01:08.035392,15.06398736,.0001976,53.0539,77.6910,38.2684,321.8445,0,U,46534,999,12152,.67224E-4,.72E-5,0
STARLINK-1663,2020-070D,2022-12-14T14:58:35.350464,15.06395463,.0001498,53.0541,78.6371,47.6430,312.4686,0,U,46535,999,12148,.80942E-4,.924E-5,0
STARLINK-1672,2020-070F,2022-12-14T23:33:26.721792,15.06393074,.0001666,53.0567,77.0339,49.5840,310.5294,0,U,46537,999,12125,.60851E-4,.625E-5,0
STARLINK-1678,2020-070G,2022-12-14T23:01:35.900256,15.06396588,.0001693,53.0551,77.1266,59.0612,301.0544,0,U,46538,999,12124,.39377E-4,.305E-5,0
STARLINK-1687,2020-070K,2022-12-14T12:59:09.775104,15.06396606,.0001447,53.0539,59.0056,71.3840,288.7306,0,U,46541,999,12175,.4064E-5,-.221E-5,0
STARLINK-1692,2020-070L,2022-12-14T22:35:03.804864,15.06392713,.0001926,53.0565,77.2192,48.3136,311.8017,0,U,46542,999,12155,.5668E-4,.563E-5,0
STARLINK-1693,2020-070M,2022-12-14T17:27:12.617568,15.06395390,.0001832,53.0534,78.1747,64.5410,295.5769,0,U,46543,999,12152,-.6991E-8,-.282E-5,0
STARLINK-1694,2020-070N,2022-12-14T22:07:51.600000,15.06395786,.000164,53.0545,62.3026,60.3629,299.7523,0,U,46544,999,12175,.28344E-4,.141E-5,0
STARLINK-1696,2020-070P,2022-12-15T07:04:36.046560,15.06395160,.0001762,53.0541,75.6166,49.6933,310.4210,0,U,46545,999,12159,.18258E-4,-.1E-6,0
STARLINK-1697,2020-070Q,2022-12-14T22:45:40.960800,15.06394027,.0001427,53.0565,77.1868,81.9099,278.2052,0,U,46546,999,12124,.4549E-4,.396E-5,0
STARLINK-1698,2020-070R,2022-12-14T18:40:09.613920,15.06393750,.0002192,53.0570,77.9411,41.8357,318.2799,0,U,46547,999,12151,.47334E-4,.423E-5,0
STARLINK-1699,2020-070S,2022-12-14T17:21:53.995104,15.06381701,.0001956,53.0554,78.1943,32.9972,327.1139,0,U,46548,999,12152,.30116E-3,.4205E-4,0
STARLINK-1700,2020-070T,2022-12-15T05:13:08.671008,15.06391603,.0001512,53.0553,75.9768,66.7873,293.3275,0,U,46549,999,12128,.47939E-4,.432E-5,0
STARLINK-1701,2020-070U,2022-12-15T06:27:26.968896,15.06396676,.0002009,53.0539,75.7376,40.5227,319.5912,0,U,46550,999,12160,.74518E-4,.828E-5,0
STARLINK-1649,2020-070W,2022-12-14T19:36:39.301056,15.60039677,.0001927,53.0492,24.3214,351.7260,8.3720,0,U,46552,999,12227,.78616E-3,.64823E-3,0
STARLINK-1664,2020-070X,2022-12-14T20:36:57.642336,15.06403713,.0001824,53.0538,47.5971,47.2718,312.8424,0,U,46553,999,12194,.66223E-4,.705E-5,0
STARLINK-1671,2020-070Y,2022-12-14T21:51:56.405664,15.06392933,.0001688,53.0561,62.3377,51.9171,308.1970,0,U,46554,999,12175,.32443E-4,.202E-5,0
STARLINK-1676,2020-070AA,2022-12-14T23:17:31.969824,15.06390306,.0001697,53.0543,77.0645,50.7714,309.3425,0,U,46556,999,12156,-.52454E-4,-.1063E-4,0
STARLINK-1679,2020-070AB,2022-12-14T22:45:00.959328,15.06393589,.0001784,53.0553,62.1806,60.7638,299.3529,0,U,46557,999,12176,.37077E-4,.271E-5,0
STARLINK-1680,2020-070AC,2022-12-14T16:33:28.511712,15.06394770,.0001714,53.0562,63.3387,62.1130,298.0032,0,U,46558,999,12172,-.62481E-4,-.1212E-4,0
STARLINK-1681,2020-070AD,2022-12-14T21:02:08.428416,15.06395156,.0001906,53.0546,47.4907,39.6431,320.4697,0,U,46559,999,12195,.232E-4,.64E-6,0
STARLINK-1706,2020-070AE,2022-12-14T21:41:19.460544,15.06389497,.0001839,53.0566,62.3818,43.9839,316.1296,0,U,46560,999,12175,.56823E-4,.565E-5,0
STARLINK-1709,2020-070AF,2022-12-14T20:30:57.501216,15.06403702,.0001782,53.0554,62.6111,50.7683,309.3464,0,U,46561,999,12173,.27567E-3,.3827E-4,0
STARLINK-1714,2020-070AG,2022-12-15T06:02:12.110784,15.06401416,.0001708,53.0551,55.7931,50.7180,309.3960,0,U,46562,999,12156,.27342E-3,.3793E-4,0
STARLINK-1730,2020-070AH,2022-12-14T21:39:20.149056,15.06388174,.0001891,53.0529,57.3878,43.7090,316.4049,0,U,46563,999,12182,-.82897E-4,-.1516E-4,0
STARLINK-1733,2020-070AJ,2022-12-15T05:10:28.978752,15.06398516,.000212,53.0578,55.9639,43.0535,317.0619,0,U,46564,999,12187,.27919E-4,.134E-5,0
STARLINK-1735,2020-070AK,2022-12-14T22:16:29.473824,15.06393823,.0001856,53.0551,57.2755,50.1217,309.9935,0,U,46565,999,12151,-.60591E-4,-.1184E-4,0
